{
    "links": {
        "self": "http://www.neowsapp.com/rest/v1/neo/54016222?api_key=iIulBulltgU6a56xZRHN4H3l9WmuAYTsLGpBGhQ2"
    },
    "id": "54016222",
    "neo_reference_id": "54016222",
    "name": "(2020 FF1)",
    "designation": "2020 FF1",
    "nasa_jpl_url": "http://ssd.jpl.nasa.gov/sbdb.cgi?sstr=54016222",
    "absolute_magnitude_h": 27.604,
    "estimated_diameter": {
        "kilometers": {
            "estimated_diameter_min": 0.0080122589,
            "estimated_diameter_max": 0.0179159557
        },
        "meters": {
            "estimated_diameter_min": 8.0122589444,
            "estimated_diameter_max": 17.915955653
        },
        "miles": {
            "estimated_diameter_min": 0.0049785854,
            "estimated_diameter_max": 0.0111324553
        },
        "feet": {
            "estimated_diameter_min": 26.2869396352,
            "estimated_diameter_max": 58.7793839447
        }
    },
    "is_potentially_hazardous_asteroid": false,
    "close_approach_data": [
        {
            "close_approach_date": "2018-03-01",
            "close_approach_date_full": "2018-Mar-01 01:25",
            "epoch_date_close_approach": 1519867500000,
            "relative_velocity": {
                "kilometers_per_second": "24.1896612751",
                "kilometers_per_hour": "87082.7805905148",
                "miles_per_hour": "54109.8533063674"
            },
            "miss_distance": {
                "astronomical": "0.3809937664",
                "lunar": "148.2065751296",
                "kilometers": "56995855.936717568",
                "miles": "35415582.6366877184"
            },
            "orbiting_body": "Earth"
        },
        {
            "close_approach_date": "2020-03-22",
            "close_approach_date_full": "2020-Mar-22 23:08",
            "epoch_date_close_approach": 1584918480000,
            "relative_velocity": {
                "kilometers_per_second": "12.9305415545",
                "kilometers_per_hour": "46549.9495963019",
                "miles_per_hour": "28924.3284033244"
            },
            "miss_distance": {
                "astronomical": "0.0047709525",
                "lunar": "1.8559005225",
                "kilometers": "713724.331871175",
                "miles": "443487.735025215"
            },
            "orbiting_body": "Earth"
        },
        {
            "close_approach_date": "2020-03-23",
            "close_approach_date_full": "2020-Mar-23 06:59",
            "epoch_date_close_approach": 1584946740000,
            "relative_velocity": {
                "kilometers_per_second": "12.9861601234",
                "kilometers_per_hour": "46750.1764441928",
                "miles_per_hour": "29048.7415800042"
            },
            "miss_distance": {
                "astronomical": "0.0051869676",
                "lunar": "2.0177303964",
                "kilometers": "775959.304719012",
                "miles": "482158.7539538856"
            },
            "orbiting_body": "Moon"
        },
        {
            "close_approach_date": "2075-09-02",
            "close_approach_date_full": "2075-Sep-02 00:57",
            "epoch_date_close_approach": 3334611420000,
            "relative_velocity": {
                "kilometers_per_second": "26.5551092185",
                "kilometers_per_hour": "95598.393186681",
                "miles_per_hour": "59401.123810913"
            },
            "miss_distance": {
                "astronomical": "0.4688051441",
                "lunar": "182.3652010549",
                "kilometers": "70132251.002403067",
                "miles": "43578160.0267616446"
            },
            "orbiting_body": "Earth"
        }
    ],
    "orbital_data": {
        "orbit_id": "3",
        "orbit_determination_date": "2020-04-04 06:25:58",
        "first_observation_date": "2020-03-16",
        "last_observation_date": "2020-03-23",
        "data_arc_in_days": 7,
        "observations_used": 20,
        "orbit_uncertainty": "8",
        "minimum_orbit_intersection": ".00376027",
        "jupiter_tisserand_invariant": "4.182",
        "epoch_osculation": "2458926.5",
        "eccentricity": ".4951741941930148",
        "semi_major_axis": "1.619296815337329",
        "inclination": "1.997026978645407",
        "ascending_node_longitude": "176.5776547049011",
        "orbital_period": "752.6414276217505",
        "perihelion_distance": ".8174628196433521",
        "perihelion_argument": "69.07954496329235",
        "aphelion_distance": "2.421130811031306",
        "perihelion_time": "2458975.907009796874",
        "mean_anomaly": "336.367865394976",
        "mean_motion": ".4783154192529016",
        "equinox": "J2000",
        "orbit_class": {
            "orbit_class_type": "APO",
            "orbit_class_description": "Near-Earth asteroid orbits which cross the Earth’s orbit similar to that of 1862 Apollo",
            "orbit_class_range": "a (semi-major axis) > 1.0 AU; q (perihelion) < 1.017 AU"
        }
    },
    "is_sentry_object": false
}